CENTAURI-7              
1 62708U 25009DD  26068.76467094  .00005487  00000+0  48082-3 0  9992
2 62708  97.7123 150.3372 0001973 133.1699 226.9688 14.97068612 62583
STARLINK-34389          
1 64351U 25126H   26068.29803218  .00004883  00000+0  41671-3 0  9994
2 64351  70.0032  35.4241 0002691 269.3836  90.7015 14.98333821 40623
